STARLINK-36343          
1 67816U 26032V   26058.44733721 -.00836764  00000+0 -46547-2 0  9996
2 67816  97.2831 244.4649 0002015  89.5674 270.5825 15.81489360  3175
STARLINK-36756          
1 67817U 26032W   26058.50690019 -.00672281  00000+0 -35914-2 0  9994
2 67817  97.2824 244.5370 0000803  79.1851 280.9508 15.81965465  3173
STARLINK-36346          
1 67818U 26032X   26058.44201494 -.00675391  00000+0 -35168-2 0  9999
2 67818  97.2825 244.4720 0001194  35.5455 324.5894 15.82519445  3170
STARLINK-36788          
1 67819U 26032Y   26058.44587492 -.00715677  00000+0 -38757-2 0  9994
2 67819  97.2835 244.4665 0002710 114.0166 246.1387 15.81762186  3174
STARLINK-36353          
1 67820U 26032Z   26058.44470114 -.00728004  00000+0 -39067-2 0  9991
2 67820  97.2829 244.4680 0001616  90.1523 269.9931 15.81998738  3173
STARLINK-36644          
1 67821U 26033A   26058.65613368  .00296748  00000+0  13593-2 0  9995
2 67821  42.9978 333.0163 0002188 283.1356  76.9272 15.82090220  3039
STARLINK-36643          
1 67822U 26033B   26058.46596051  .00451567  00000+0  22345-2 0  9991
2 67822  42.9976 334.1703 0007736 168.6663 191.4383 15.79987238  3005
STARLINK-36646          
1 67823U 26033C   26058.25002315  .00109145  00000+0  51599-3 0  9990
2 67823  42.9988 335.4855 0001639 280.1657 292.7208 15.81947719  2980
STARLINK-36647          
1 67824U 26033D   26058.33335647  .00103719  00000+0  49026-3 0  9990
2 67824  42.9984 334.9625 0001694 273.0572  59.2707 15.81969889  3000
STARLINK-36648          
1 67825U 26033E   26058.33335647  .00085159  00000+0  40396-3 0  9999
2 67825  42.9983 334.9524 0001924 288.7929  47.8224 15.81963398  3009
STARLINK-35865          
1 67826U 26033F   26058.33335647  .00014103  00000+0  69399-4 0  9996
2 67826  42.9986 334.9412 0001946 258.4008  82.4553 15.82015074  3005
STARLINK-36289          
1 67827U 26033G   26058.33335647 -.00000934  00000+0 -19005-5 0  9996
2 67827  42.9987 334.9301 0001800 275.8855  69.2421 15.82021408  3001
