CCSDS_OMM_VERS = 2.0
CREATION_DATE  = 
ORIGINATOR     = 

OBJECT_NAME    = STARLINK-36343
OBJECT_ID      = 2026-032V
CENTER_NAME    = EARTH
REF_FRAME      = TEME
TIME_SYSTEM    = UTC
MEAN_ELEMENT_THEORY = SGP/SGP4

EPOCH          = 2026-02-27T10:44:09.934944
MEAN_MOTION    = 15.81489360
ECCENTRICITY   = .0002015
INCLINATION    = 97.2831
RA_OF_ASC_NODE = 244.4649
ARG_OF_PERICENTER = 89.5674
MEAN_ANOMALY   = 270.5825

EPHEMERIS_TYPE = 0
CLASSIFICATION_TYPE = U
NORAD_CAT_ID   = 67816
ELEMENT_SET_NO = 999
REV_AT_EPOCH   = 317
BSTAR          = -.46547E-2
MEAN_MOTION_DOT = -.836764E-2
MEAN_MOTION_DDOT = 0

CCSDS_OMM_VERS = 2.0
CREATION_DATE  = 
ORIGINATOR     = 

OBJECT_NAME    = STARLINK-36756
OBJECT_ID      = 2026-032W
CENTER_NAME    = EARTH
REF_FRAME      = TEME
TIME_SYSTEM    = UTC
MEAN_ELEMENT_THEORY = SGP/SGP4

EPOCH          = 2026-02-27T12:09:56.176416
MEAN_MOTION    = 15.81965465
ECCENTRICITY   = .0000803
INCLINATION    = 97.2824
RA_OF_ASC_NODE = 244.5370
ARG_OF_PERICENTER = 79.1851
MEAN_ANOMALY   = 280.9508

EPHEMERIS_TYPE = 0
CLASSIFICATION_TYPE = U
NORAD_CAT_ID   = 67817
ELEMENT_SET_NO = 999
REV_AT_EPOCH   = 317
BSTAR          = -.35914E-2
MEAN_MOTION_DOT = -.672281E-2
MEAN_MOTION_DDOT = 0

CCSDS_OMM_VERS = 2.0
CREATION_DATE  = 
ORIGINATOR     = 

OBJECT_NAME    = STARLINK-36346
OBJECT_ID      = 2026-032X
CENTER_NAME    = EARTH
REF_FRAME      = TEME
TIME_SYSTEM    = UTC
MEAN_ELEMENT_THEORY = SGP/SGP4

EPOCH          = 2026-02-27T10:36:30.090816
MEAN_MOTION    = 15.82519445
ECCENTRICITY   = .0001194
INCLINATION    = 97.2825
RA_OF_ASC_NODE = 244.4720
ARG_OF_PERICENTER = 35.5455
MEAN_ANOMALY   = 324.5894

EPHEMERIS_TYPE = 0
CLASSIFICATION_TYPE = U
NORAD_CAT_ID   = 67818
ELEMENT_SET_NO = 999
REV_AT_EPOCH   = 317
BSTAR          = -.35168E-2
MEAN_MOTION_DOT = -.675391E-2
MEAN_MOTION_DDOT = 0

CCSDS_OMM_VERS = 2.0
CREATION_DATE  = 
ORIGINATOR     = 

OBJECT_NAME    = STARLINK-36788
OBJECT_ID      = 2026-032Y
CENTER_NAME    = EARTH
REF_FRAME      = TEME
TIME_SYSTEM    = UTC
MEAN_ELEMENT_THEORY = SGP/SGP4

EPOCH          = 2026-02-27T10:42:03.593088
MEAN_MOTION    = 15.81762186
ECCENTRICITY   = .000271
INCLINATION    = 97.2835
RA_OF_ASC_NODE = 244.4665
ARG_OF_PERICENTER = 114.0166
MEAN_ANOMALY   = 246.1387

EPHEMERIS_TYPE = 0
CLASSIFICATION_TYPE = U
NORAD_CAT_ID   = 67819
ELEMENT_SET_NO = 999
REV_AT_EPOCH   = 317
BSTAR          = -.38757E-2
MEAN_MOTION_DOT = -.715677E-2
MEAN_MOTION_DDOT = 0

CCSDS_OMM_VERS = 2.0
CREATION_DATE  = 
ORIGINATOR     = 

OBJECT_NAME    = STARLINK-36353
OBJECT_ID      = 2026-032Z
CENTER_NAME    = EARTH
REF_FRAME      = TEME
TIME_SYSTEM    = UTC
MEAN_ELEMENT_THEORY = SGP/SGP4

EPOCH          = 2026-02-27T10:40:22.178496
MEAN_MOTION    = 15.81998738
ECCENTRICITY   = .0001616
INCLINATION    = 97.2829
RA_OF_ASC_NODE = 244.4680
ARG_OF_PERICENTER = 90.1523
MEAN_ANOMALY   = 269.9931

EPHEMERIS_TYPE = 0
CLASSIFICATION_TYPE = U
NORAD_CAT_ID   = 67820
ELEMENT_SET_NO = 999
REV_AT_EPOCH   = 317
BSTAR          = -.39067E-2
MEAN_MOTION_DOT = -.728004E-2
MEAN_MOTION_DDOT = 0

CCSDS_OMM_VERS = 2.0
CREATION_DATE  = 
ORIGINATOR     = 

OBJECT_NAME    = STARLINK-36644
OBJECT_ID      = 2026-033A
CENTER_NAME    = EARTH
REF_FRAME      = TEME
TIME_SYSTEM    = UTC
MEAN_ELEMENT_THEORY = SGP/SGP4

EPOCH          = 2026-02-27T15:44:49.949952
MEAN_MOTION    = 15.82090220
ECCENTRICITY   = .0002188
INCLINATION    = 42.9978
RA_OF_ASC_NODE = 333.0163
ARG_OF_PERICENTER = 283.1356
MEAN_ANOMALY   = 76.9272

EPHEMERIS_TYPE = 0
CLASSIFICATION_TYPE = U
NORAD_CAT_ID   = 67821
ELEMENT_SET_NO = 999
REV_AT_EPOCH   = 303
BSTAR          = .13593E-2
MEAN_MOTION_DOT = .296748E-2
MEAN_MOTION_DDOT = 0

CCSDS_OMM_VERS = 2.0
CREATION_DATE  = 
ORIGINATOR     = 

OBJECT_NAME    = STARLINK-36643
OBJECT_ID      = 2026-033B
CENTER_NAME    = EARTH
REF_FRAME      = TEME
TIME_SYSTEM    = UTC
MEAN_ELEMENT_THEORY = SGP/SGP4

EPOCH          = 2026-02-27T11:10:58.988064
MEAN_MOTION    = 15.79987238
ECCENTRICITY   = .0007736
INCLINATION    = 42.9976
RA_OF_ASC_NODE = 334.1703
ARG_OF_PERICENTER = 168.6663
MEAN_ANOMALY   = 191.4383

EPHEMERIS_TYPE = 0
CLASSIFICATION_TYPE = U
NORAD_CAT_ID   = 67822
ELEMENT_SET_NO = 999
REV_AT_EPOCH   = 300
BSTAR          = .22345E-2
MEAN_MOTION_DOT = .451567E-2
MEAN_MOTION_DDOT = 0

CCSDS_OMM_VERS = 2.0
CREATION_DATE  = 
ORIGINATOR     = 

OBJECT_NAME    = STARLINK-36646
OBJECT_ID      = 2026-033C
CENTER_NAME    = EARTH
REF_FRAME      = TEME
TIME_SYSTEM    = UTC
MEAN_ELEMENT_THEORY = SGP/SGP4

EPOCH          = 2026-02-27T06:00:02.000160
MEAN_MOTION    = 15.81947719
ECCENTRICITY   = .00016393
INCLINATION    = 42.9988
RA_OF_ASC_NODE = 335.4855
ARG_OF_PERICENTER = 280.1657
MEAN_ANOMALY   = 292.7208

EPHEMERIS_TYPE = 0
CLASSIFICATION_TYPE = U
NORAD_CAT_ID   = 67823
ELEMENT_SET_NO = 999
REV_AT_EPOCH   = 298
BSTAR          = .51599136E-3
MEAN_MOTION_DOT = .109145E-2
MEAN_MOTION_DDOT = 0

CCSDS_OMM_VERS = 2.0
CREATION_DATE  = 
ORIGINATOR     = 

OBJECT_NAME    = STARLINK-36647
OBJECT_ID      = 2026-033D
CENTER_NAME    = EARTH
REF_FRAME      = TEME
TIME_SYSTEM    = UTC
MEAN_ELEMENT_THEORY = SGP/SGP4

EPOCH          = 2026-02-27T08:00:01.999008
MEAN_MOTION    = 15.81969889
ECCENTRICITY   = .0001694
INCLINATION    = 42.9984
RA_OF_ASC_NODE = 334.9625
ARG_OF_PERICENTER = 273.0572
MEAN_ANOMALY   = 59.2707

EPHEMERIS_TYPE = 0
CLASSIFICATION_TYPE = U
NORAD_CAT_ID   = 67824
ELEMENT_SET_NO = 999
REV_AT_EPOCH   = 300
BSTAR          = .49026E-3
MEAN_MOTION_DOT = .103719E-2
MEAN_MOTION_DDOT = 0

CCSDS_OMM_VERS = 2.0
CREATION_DATE  = 
ORIGINATOR     = 

OBJECT_NAME    = STARLINK-36648
OBJECT_ID      = 2026-033E
CENTER_NAME    = EARTH
REF_FRAME      = TEME
TIME_SYSTEM    = UTC
MEAN_ELEMENT_THEORY = SGP/SGP4

EPOCH          = 2026-02-27T08:00:01.999008
MEAN_MOTION    = 15.81963398
ECCENTRICITY   = .0001924
INCLINATION    = 42.9983
RA_OF_ASC_NODE = 334.9524
ARG_OF_PERICENTER = 288.7929
MEAN_ANOMALY   = 47.8224

EPHEMERIS_TYPE = 0
CLASSIFICATION_TYPE = U
NORAD_CAT_ID   = 67825
ELEMENT_SET_NO = 999
REV_AT_EPOCH   = 300
BSTAR          = .40396E-3
MEAN_MOTION_DOT = .85159E-3
MEAN_MOTION_DDOT = 0

CCSDS_OMM_VERS = 2.0
CREATION_DATE  = 
ORIGINATOR     = 

OBJECT_NAME    = STARLINK-35865
OBJECT_ID      = 2026-033F
CENTER_NAME    = EARTH
REF_FRAME      = TEME
TIME_SYSTEM    = UTC
MEAN_ELEMENT_THEORY = SGP/SGP4

EPOCH          = 2026-02-27T08:00:01.999008
MEAN_MOTION    = 15.82015074
ECCENTRICITY   = .0001946
INCLINATION    = 42.9986
RA_OF_ASC_NODE = 334.9412
ARG_OF_PERICENTER = 258.4008
MEAN_ANOMALY   = 82.4553

EPHEMERIS_TYPE = 0
CLASSIFICATION_TYPE = U
NORAD_CAT_ID   = 67826
ELEMENT_SET_NO = 999
REV_AT_EPOCH   = 300
BSTAR          = .69399E-4
MEAN_MOTION_DOT = .14103E-3
MEAN_MOTION_DDOT = 0

CCSDS_OMM_VERS = 2.0
CREATION_DATE  = 
ORIGINATOR     = 

OBJECT_NAME    = STARLINK-36289
OBJECT_ID      = 2026-033G
CENTER_NAME    = EARTH
REF_FRAME      = TEME
TIME_SYSTEM    = UTC
MEAN_ELEMENT_THEORY = SGP/SGP4

EPOCH          = 2026-02-27T08:00:01.999008
MEAN_MOTION    = 15.82021408
ECCENTRICITY   = .00018
INCLINATION    = 42.9987
RA_OF_ASC_NODE = 334.9301
ARG_OF_PERICENTER = 275.8855
MEAN_ANOMALY   = 69.2421

EPHEMERIS_TYPE = 0
CLASSIFICATION_TYPE = U
NORAD_CAT_ID   = 67827
ELEMENT_SET_NO = 999
REV_AT_EPOCH   = 300
BSTAR          = -.19005E-5
MEAN_MOTION_DOT = -.934E-5
MEAN_MOTION_DDOT = 0

